NORAD_CAT_ID,OBJECT_NAME,OBJECT_TYPE,EPOCH,MEAN_MOTION,ECCENTRICITY,INCLINATION,RA_OF_ASC_NODE,ARG_OF_PERICENTER,MEAN_ANOMALY,BSTAR,MEAN_MOTION_DOT,MEAN_MOTION_DDOT,TLE_LINE0,TLE_LINE1,TLE_LINE2,SEMIMAJOR_AXIS,PERIOD,APOGEE,PERIGEE,DECAYED
55919.0,STARLINK-5871,PAYLOAD,2024-04-21 13:56:38,14.98316266,0.0002753,70.0012,236.9511,256.3699,103.7154,-0.00011512,-1.466e-05,0.0,0 STARLINK-5871,1 55919U 23037F   24112.58100223 -.00001466  00000-0 -11512-3 0  9997,2 55919  70.0012 236.9511 0002753 256.3699 103.7154 14.98316266 60569,6950.235,96.108,574.014,570.187,0.0
55919.0,STARLINK-5871,PAYLOAD,2024-04-21 18:45:02,14.98326649,0.0002083,70.0028,236.4479,254.6868,105.4061,-1.3467e-05,-2.53e-06,0.0,0 STARLINK-5871,1 55919U 23037F   24112.78127619 -.00000253  00000-0 -13467-4 0  9992,2 55919  70.0028 236.4479 0002083 254.6868 105.4061 14.98326649 60932,6950.203,96.107,573.516,570.621,0.0
55919.0,STARLINK-5871,PAYLOAD,2024-04-22 10:46:23,14.98328178,0.000246,70.0025,234.7648,244.7839,115.3066,-0.0001551,-1.943e-05,0.0,0 STARLINK-5871,1 55919U 23037F   24113.44887796 -.00001943  00000-0 -15510-3 0  9992,2 55919  70.0025 234.7648 0002460 244.7839 115.3066 14.98328178 60692,6950.199,96.107,573.773,570.354,0.0
55919.0,STARLINK-5871,PAYLOAD,2024-04-22 17:10:55,14.98329139,0.0002532,70.0027,234.0924,234.9259,125.1663,-3.7992e-05,-5.46e-06,0.0,0 STARLINK-5871,1 55919U 23037F   24113.71591459 -.00000546  00000-0 -37992-4 0  9997,2 55919  70.0027 234.0924 0002532 234.9259 125.1663 14.98329139 60736,6950.196,96.107,573.82,570.301,0.0
55919.0,STARLINK-5871,PAYLOAD,2024-04-23 12:24:31,14.98320009,0.0002583,70.002,232.0705,246.7183,113.3705,0.00025573,2.959e-05,0.0,0 STARLINK-5871,1 55919U 23037F   24114.51703565  .00002959  00000-0  25573-3 0  9998,2 55919  70.0020 232.0705 0002583 246.7183 113.3705 14.98320009 61191,6950.224,96.108,573.884,570.294,0.0
55919.0,STARLINK-5871,PAYLOAD,2024-04-23 14:00:39,14.98320691,0.0002634,70.0026,231.9032,249.0727,111.015,0.00024497,2.83e-05,0.0,0 STARLINK-5871,1 55919U 23037F   24114.58379592  .00002830  00000-0  24497-3 0  9996,2 55919  70.0026 231.9032 0002634 249.0727 111.0150 14.98320691 60864,6950.222,96.108,573.917,570.256,0.0
55919.0,STARLINK-5871,PAYLOAD,2024-04-23 17:12:55,14.98336059,0.0002525,70.0019,231.5655,276.2714,83.8158,0.00039905,4.672e-05,0.0,0 STARLINK-5871,1 55919U 23037F   24114.71730499  .00004672  00000-0  39905-3 0  9994,2 55919  70.0019 231.5655 0002525 276.2714  83.8158 14.98336059 61220,6950.174,96.107,573.794,570.284,0.0
55919.0,STARLINK-5871,PAYLOAD,2024-04-24 12:26:33,14.98322376,0.0002706,70.0023,229.5482,248.5232,111.5639,7.9634e-05,8.57e-06,0.0,0 STARLINK-5871,1 55919U 23037F   24115.51844275  .00000857  00000-0  79634-4 0  9996,2 55919  70.0023 229.5482 0002706 248.5232 111.5639 14.98322376 61341,6950.216,96.107,573.962,570.201,0.0
55919.0,STARLINK-5871,PAYLOAD,2024-04-24 14:02:41,14.98322055,0.0002636,70.0024,229.3793,244.3808,115.7079,8.0956e-05,8.73e-06,0.0,0 STARLINK-5871,1 55919U 23037F   24115.58520301  .00000873  00000-0  80956-4 0  9991,2 55919  70.0024 229.3793 0002636 244.3808 115.7079 14.98322055 61012,6950.217,96.108,573.915,570.25,0.0
55919.0,STARLINK-5871,PAYLOAD,2024-04-24 15:38:49,14.98323294,0.0002605,70.0026,229.2115,241.964,118.1255,9.3878e-05,1.027e-05,0.0,0 STARLINK-5871,1 55919U 23037F   24115.65196215  .00001027  00000-0  93878-4 0  9991,2 55919  70.0026 229.2115 0002605 241.9640 118.1255 14.98323294 61024,6950.214,96.107,573.889,570.268,0.0
55919.0,STARLINK-5871,PAYLOAD,2024-04-25 10:52:25,14.98331344,0.0002719,70.0023,227.1912,263.3148,96.7702,4.9881e-05,5.02e-06,0.0,0 STARLINK-5871,1 55919U 23037F   24116.45307833  .00000502  00000-0  49881-4 0  9992,2 55919  70.0023 227.1912 0002719 263.3148  96.7702 14.98331344 61483,6950.189,96.107,573.943,570.164,0.0
55919.0,STARLINK-5871,PAYLOAD,2024-04-25 14:04:41,14.98332238,0.0002676,70.0022,226.8541,261.5794,98.5062,6.0737e-05,6.32e-06,0.0,0 STARLINK-5871,1 55919U 23037F   24116.58659722  .00000632  00000-0  60737-4 0  9990,2 55919  70.0022 226.8541 0002676 261.5794  98.5062 14.98332238 61162,6950.186,96.107,573.911,570.191,0.0
55919.0,STARLINK-5871,PAYLOAD,2024-04-25 17:16:57,14.98335267,0.0002549,70.0025,226.5191,258.9903,101.097,7.5408e-05,8.07e-06,0.0,0 STARLINK-5871,1 55919U 23037F   24116.72011486  .00000807  00000-0  75408-4 0  9990,2 55919  70.0025 226.5191 0002549 258.9903 101.0970 14.98335267 61189,6950.177,96.107,573.813,570.27,0.0
55919.0,STARLINK-5871,PAYLOAD,2024-04-26 14:06:42,14.98329508,0.0002679,70.0023,224.332,256.8602,103.2258,9.0353e-05,9.85e-06,0.0,0 STARLINK-5871,1 55919U 23037F   24117.58799764  .00000985  00000-0  90353-4 0  9990,2 55919  70.0023 224.3320 0002679 256.8602 103.2258 14.98329508 61650,6950.194,96.107,573.921,570.197,0.0
55919.0,STARLINK-5871,PAYLOAD,2024-04-26 17:18:58,14.98333639,0.0002636,70.0024,223.9952,257.8623,102.2241,8.9863e-05,9.8e-06,0.0,0 STARLINK-5871,1 55919U 23037F   24117.72151511  .00000980  00000-0  89863-4 0  9997,2 55919  70.0024 223.9952 0002636 257.8623 102.2241 14.98333639 61330,6950.182,96.107,573.879,570.215,0.0
55919.0,STARLINK-5871,PAYLOAD,2024-04-27 10:56:26,14.98342373,0.00029,70.001,222.1406,271.1868,88.8958,0.00015568,1.766e-05,0.0,0 STARLINK-5871,1 55919U 23037F   24118.45586561  .00001766  00000-0  15568-3 0  9998,2 55919  70.0010 222.1406 0002900 271.1868  88.8958 14.98342373 61782,6950.155,96.106,574.035,570.004,0.0
55919.0,STARLINK-5871,PAYLOAD,2024-04-27 14:08:42,14.98345485,0.0002814,70.0011,221.8044,269.6833,90.4003,0.00018123,2.071e-05,0.0,0 STARLINK-5871,1 55919U 23037F   24118.58938135  .00002071  00000-0  18123-3 0  9990,2 55919  70.0011 221.8044 0002814 269.6833  90.4003 14.98345485 61467,6950.145,96.106,573.966,570.054,0.0
55919.0,STARLINK-5871,PAYLOAD,2024-04-27 17:20:58,14.98350642,0.0002779,70.0013,221.4683,268.4159,91.6682,0.00022361,2.577e-05,0.0,0 STARLINK-5871,1 55919U 23037F   24118.72289618  .00002577  00000-0  22361-3 0  9991,2 55919  70.0013 221.4683 0002779 268.4159  91.6682 14.98350642 61829,6950.129,96.106,573.925,570.063,0.0
55919.0,STARLINK-5871,PAYLOAD,2024-04-28 12:34:37,14.98313788,0.0003003,70.0006,219.4463,270.2757,89.8058,-0.00011213,-1.43e-05,0.0,0 STARLINK-5871,1 55919U 23037F   24119.52404785 -.00001430  00000-0 -11213-3 0  9997,2 55919  70.0006 219.4463 0003003 270.2757  89.8058 14.98313788 61949,6950.243,96.108,574.195,570.021,0.0
55919.0,STARLINK-5871,PAYLOAD,2024-04-28 14:10:45,14.98315921,0.0003181,70.0001,219.2773,273.7279,86.3516,-9.8006e-05,-1.262e-05,0.0,0 STARLINK-5871,1 55919U 23037F   24119.59080668 -.00001262  00000-0 -98006-4 0  9993,2 55919  70.0001 219.2773 0003181 273.7279  86.3516 14.98315921 61616,6950.236,96.108,574.312,569.891,0.0
55919.0,STARLINK-5871,PAYLOAD,2024-04-28 15:46:53,14.98316379,0.0003035,70.0003,219.109,271.2456,88.8355,-8.5278e-05,-1.11e-05,0.0,0 STARLINK-5871,1 55919U 23037F   24119.65756654 -.00001110  00000-0 -85278-4 0  9994,2 55919  70.0003 219.1090 0003035 271.2456  88.8355 14.98316379 61624,6950.235,96.108,574.209,569.991,0.0
55919.0,STARLINK-5871,PAYLOAD,2024-04-28 23:47:33,14.98328367,0.0003246,70.0005,218.2674,271.8633,88.2154,-0.00012197,-1.548e-05,0.0,0 STARLINK-5871,1 55919U 23037F   24119.99136021 -.00001548  00000-0 -12197-3 0  9995,2 55919  70.0005 218.2674 0003246 271.8633  88.2154 14.98328367 62016,6950.198,96.107,574.319,569.807,0.0
55919.0,STARLINK-5871,PAYLOAD,2024-04-29 12:36:37,14.98337838,0.0003094,70.0007,216.922,264.8673,95.2133,-3.2715e-05,-4.83e-06,0.0,0 STARLINK-5871,1 55919U 23037F   24120.52543338 -.00000483  00000-0 -32715-4 0  9995,2 55919  70.0007 216.9220 0003094 264.8673  95.2133 14.98337838 62093,6950.169,96.106,574.184,569.883,0.0
55919.0,STARLINK-5871,PAYLOAD,2024-04-29 14:12:45,14.98339214,0.0003088,70.0006,216.7536,263.8099,96.2708,-8.3074e-06,-1.92e-06,0.0,0 STARLINK-5871,1 55919U 23037F   24120.59219170 -.00000192  00000-0 -83074-5 0  9998,2 55919  70.0006 216.7536 0003088 263.8099  96.2708 14.98339214 61766,6950.164,96.106,574.176,569.883,0.0
55919.0,STARLINK-5871,PAYLOAD,2024-04-29 15:48:53,14.98339246,0.0003007,70.0006,216.5849,264.3554,95.7262,3.7332e-05,3.53e-06,0.0,0 STARLINK-5871,1 55919U 23037F   24120.65895070  .00000353  00000-0  37332-4 0  9996,2 55919  70.0006 216.5849 0003007 264.3554  95.7262 14.98339246 61779,6950.164,96.106,574.119,569.939,0.0
55919.0,STARLINK-5871,PAYLOAD,2024-04-30 12:38:38,14.98331712,0.0003066,70.0017,214.3974,267.2424,92.8384,0.00064119,7.566e-05,0.0,0 STARLINK-5871,1 55919U 23037F   24121.52683833  .00007566  00000-0  64119-3 0  9990,2 55919  70.0017 214.3974 0003066 267.2424  92.8384 14.98331712 62245,6950.188,96.107,574.184,569.922,0.0
55919.0,STARLINK-5871,PAYLOAD,2024-04-30 14:14:47,14.98329931,0.000308,70.0017,214.229,267.2731,92.8076,0.00076205,9.011e-05,0.0,0 STARLINK-5871,1 55919U 23037F   24121.59360039  .00009011  00000-0  76205-3 0  9993,2 55919  70.0017 214.2290 0003080 267.2731  92.8076 14.98329931 61913,6950.193,96.107,574.199,569.917,0.0
55919.0,STARLINK-5871,PAYLOAD,2024-04-30 15:50:54,14.9833452,0.0003083,70.0017,214.0607,266.6744,93.4062,0.00070431,8.322e-05,0.0,0 STARLINK-5871,1 55919U 23037F   24121.66035837  .00008322  00000-0  70431-3 0  9995,2 55919  70.0017 214.0607 0003083 266.6744  93.4062 14.98334520 61926,6950.179,96.107,574.187,569.901,0.0
55919.0,STARLINK-5871,PAYLOAD,2024-05-01 06:16:07,14.98338555,0.0003035,70.0018,212.5451,265.6326,94.4487,0.00028037,3.255e-05,0.0,0 STARLINK-5871,1 55919U 23037F   24122.26119266  .00003255  00000-0  28037-3 0  9996,2 55919  70.0018 212.5451 0003035 265.6326  94.4487 14.98338555 62014,6950.166,96.106,574.141,569.922,0.0
55919.0,STARLINK-5871,PAYLOAD,2024-05-02 12:42:40,14.98335286,0.0003145,70.0005,209.3489,266.9296,93.1503,1.1444e-05,4.4e-07,0.0,0 STARLINK-5871,1 55919U 23037F   24123.52963209  .00000044  00000-0  11444-4 0  9998,2 55919  70.0005 209.3489 0003145 266.9296  93.1503 14.98335286 62548,6950.177,96.107,574.227,569.856,0.0
